<?xml version="1.0" encoding="UTF-8"?>
<ndm xmlns:xsi="http://www.w3.org/2001/XMLSchema-instance" xsi:noNamespaceSchemaLocation="https://sanaregistry.org/r/ndmxml_unqualified/ndmxml-2.0.0-master-2.0.xsd">
<omm id="CCSDS_OMM_VERS" version="2.0">
<header><CREATION_DATE/><ORIGINATOR/></header><body><segment><metadata><OBJECT_NAME>KUIPER-00133</OBJECT_NAME><OBJECT_ID>2025-217C</OBJECT_ID><CENTER_NAME>EARTH</CENTER_NAME><REF_FRAME>TEME</REF_FRAME><TIME_SYSTEM>UTC</TIME_SYSTEM><MEAN_ELEMENT_THEORY>SGP4</MEAN_ELEMENT_THEORY></metadata><data><meanElements><EPOCH>2025-12-12T15:50:42.538848</EPOCH><MEAN_MOTION>14.79908758</MEAN_MOTION><ECCENTRICITY>.00117885</ECCENTRICITY><INCLINATION>51.9030</INCLINATION><RA_OF_ASC_NODE>77.9364</RA_OF_ASC_NODE><ARG_OF_PERICENTER>33.3710</ARG_OF_PERICENTER><MEAN_ANOMALY>326.7993</MEAN_ANOMALY></meanElements><tleParameters><EPHEMERIS_TYPE>0</EPHEMERIS_TYPE><CLASSIFICATION_TYPE>U</CLASSIFICATION_TYPE><NORAD_CAT_ID>65764</NORAD_CAT_ID><ELEMENT_SET_NO>999</ELEMENT_SET_NO><REV_AT_EPOCH>1185</REV_AT_EPOCH><BSTAR>.6834047E-2</BSTAR><MEAN_MOTION_DOT>.52307E-3</MEAN_MOTION_DOT><MEAN_MOTION_DDOT>0</MEAN_MOTION_DDOT></tleParameters></data></segment></body></omm>
<omm id="CCSDS_OMM_VERS" version="2.0">
<header><CREATION_DATE/><ORIGINATOR/></header><body><segment><metadata><OBJECT_NAME>KUIPER-00139</OBJECT_NAME><OBJECT_ID>2025-217D</OBJECT_ID><CENTER_NAME>EARTH</CENTER_NAME><REF_FRAME>TEME</REF_FRAME><TIME_SYSTEM>UTC</TIME_SYSTEM><MEAN_ELEMENT_THEORY>SGP4</MEAN_ELEMENT_THEORY></metadata><data><meanElements><EPOCH>2025-12-12T22:41:46.638816</EPOCH><MEAN_MOTION>15.01649613</MEAN_MOTION><ECCENTRICITY>.00081819</ECCENTRICITY><INCLINATION>51.8858</INCLINATION><RA_OF_ASC_NODE>70.9898</RA_OF_ASC_NODE><ARG_OF_PERICENTER>22.6586</ARG_OF_PERICENTER><MEAN_ANOMALY>337.4745</MEAN_ANOMALY></meanElements><tleParameters><EPHEMERIS_TYPE>0</EPHEMERIS_TYPE><CLASSIFICATION_TYPE>U</CLASSIFICATION_TYPE><NORAD_CAT_ID>65765</NORAD_CAT_ID><ELEMENT_SET_NO>999</ELEMENT_SET_NO><REV_AT_EPOCH>1197</REV_AT_EPOCH><BSTAR>.79709789E-3</BSTAR><MEAN_MOTION_DOT>.10216E-3</MEAN_MOTION_DOT><MEAN_MOTION_DDOT>0</MEAN_MOTION_DDOT></tleParameters></data></segment></body></omm>
<omm id="CCSDS_OMM_VERS" version="2.0">
<header><CREATION_DATE/><ORIGINATOR/></header><body><segment><metadata><OBJECT_NAME>KUIPER-00142</OBJECT_NAME><OBJECT_ID>2025-217E</OBJECT_ID><CENTER_NAME>EARTH</CENTER_NAME><REF_FRAME>TEME</REF_FRAME><TIME_SYSTEM>UTC</TIME_SYSTEM><MEAN_ELEMENT_THEORY>SGP4</MEAN_ELEMENT_THEORY></metadata><data><meanElements><EPOCH>2025-12-12T22:00:01.999584</EPOCH><MEAN_MOTION>15.23775657</MEAN_MOTION><ECCENTRICITY>.00032277</ECCENTRICITY><INCLINATION>51.8753</INCLINATION><RA_OF_ASC_NODE>64.1065</RA_OF_ASC_NODE><ARG_OF_PERICENTER>44.5061</ARG_OF_PERICENTER><MEAN_ANOMALY>353.7502</MEAN_ANOMALY></meanElements><tleParameters><EPHEMERIS_TYPE>0</EPHEMERIS_TYPE><CLASSIFICATION_TYPE>U</CLASSIFICATION_TYPE><NORAD_CAT_ID>65766</NORAD_CAT_ID><ELEMENT_SET_NO>999</ELEMENT_SET_NO><REV_AT_EPOCH>483</REV_AT_EPOCH><BSTAR>-.43470427E-1</BSTAR><MEAN_MOTION_DOT>-.978681E-2</MEAN_MOTION_DOT><MEAN_MOTION_DDOT>0</MEAN_MOTION_DDOT></tleParameters></data></segment></body></omm>
<omm id="CCSDS_OMM_VERS" version="2.0">
<header><CREATION_DATE/><ORIGINATOR/></header><body><segment><metadata><OBJECT_NAME>KUIPER-00145</OBJECT_NAME><OBJECT_ID>2025-217F</OBJECT_ID><CENTER_NAME>EARTH</CENTER_NAME><REF_FRAME>TEME</REF_FRAME><TIME_SYSTEM>UTC</TIME_SYSTEM><MEAN_ELEMENT_THEORY>SGP4</MEAN_ELEMENT_THEORY></metadata><data><meanElements><EPOCH>2025-12-12T22:00:01.999584</EPOCH><MEAN_MOTION>15.15497385</MEAN_MOTION><ECCENTRICITY>.00059872</ECCENTRICITY><INCLINATION>51.8889</INCLINATION><RA_OF_ASC_NODE>65.3206</RA_OF_ASC_NODE><ARG_OF_PERICENTER>359.8115</ARG_OF_PERICENTER><MEAN_ANOMALY>106.7452</MEAN_ANOMALY></meanElements><tleParameters><EPHEMERIS_TYPE>0</EPHEMERIS_TYPE><CLASSIFICATION_TYPE>U</CLASSIFICATION_TYPE><NORAD_CAT_ID>65767</NORAD_CAT_ID><ELEMENT_SET_NO>999</ELEMENT_SET_NO><REV_AT_EPOCH>405</REV_AT_EPOCH><BSTAR>-.44917544E-1</BSTAR><MEAN_MOTION_DOT>-.797077E-2</MEAN_MOTION_DOT><MEAN_MOTION_DDOT>0</MEAN_MOTION_DDOT></tleParameters></data></segment></body></omm>
<omm id="CCSDS_OMM_VERS" version="2.0">
<header><CREATION_DATE/><ORIGINATOR/></header><body><segment><metadata><OBJECT_NAME>KUIPER-00147</OBJECT_NAME><OBJECT_ID>2025-217G</OBJECT_ID><CENTER_NAME>EARTH</CENTER_NAME><REF_FRAME>TEME</REF_FRAME><TIME_SYSTEM>UTC</TIME_SYSTEM><MEAN_ELEMENT_THEORY>SGP4</MEAN_ELEMENT_THEORY></metadata><data><meanElements><EPOCH>2025-12-12T22:00:01.999584</EPOCH><MEAN_MOTION>15.07118286</MEAN_MOTION><ECCENTRICITY>.00097967</ECCENTRICITY><INCLINATION>51.8930</INCLINATION><RA_OF_ASC_NODE>67.1185</RA_OF_ASC_NODE><ARG_OF_PERICENTER>22.1125</ARG_OF_PERICENTER><MEAN_ANOMALY>251.8009</MEAN_ANOMALY></meanElements><tleParameters><EPHEMERIS_TYPE>0</EPHEMERIS_TYPE><CLASSIFICATION_TYPE>U</CLASSIFICATION_TYPE><NORAD_CAT_ID>65768</NORAD_CAT_ID><ELEMENT_SET_NO>999</ELEMENT_SET_NO><REV_AT_EPOCH>467</REV_AT_EPOCH><BSTAR>-.74783186E-1</BSTAR><MEAN_MOTION_DOT>-.1055102E-1</MEAN_MOTION_DOT><MEAN_MOTION_DDOT>0</MEAN_MOTION_DDOT></tleParameters></data></segment></body></omm>
<omm id="CCSDS_OMM_VERS" version="2.0">
<header><CREATION_DATE/><ORIGINATOR/></header><body><segment><metadata><OBJECT_NAME>KUIPER-00148</OBJECT_NAME><OBJECT_ID>2025-217H</OBJECT_ID><CENTER_NAME>EARTH</CENTER_NAME><REF_FRAME>TEME</REF_FRAME><TIME_SYSTEM>UTC</TIME_SYSTEM><MEAN_ELEMENT_THEORY>SGP4</MEAN_ELEMENT_THEORY></metadata><data><meanElements><EPOCH>2025-12-12T22:00:01.999584</EPOCH><MEAN_MOTION>15.12867828</MEAN_MOTION><ECCENTRICITY>.00095136</ECCENTRICITY><INCLINATION>51.8733</INCLINATION><RA_OF_ASC_NODE>66.8130</RA_OF_ASC_NODE><ARG_OF_PERICENTER>46.7552</ARG_OF_PERICENTER><MEAN_ANOMALY>97.0872</MEAN_ANOMALY></meanElements><tleParameters><EPHEMERIS_TYPE>0</EPHEMERIS_TYPE><CLASSIFICATION_TYPE>U</CLASSIFICATION_TYPE><NORAD_CAT_ID>65769</NORAD_CAT_ID><ELEMENT_SET_NO>999</ELEMENT_SET_NO><REV_AT_EPOCH>450</REV_AT_EPOCH><BSTAR>-.66607917E-3</BSTAR><MEAN_MOTION_DOT>-.12159E-3</MEAN_MOTION_DOT><MEAN_MOTION_DDOT>0</MEAN_MOTION_DDOT></tleParameters></data></segment></body></omm>
<omm id="CCSDS_OMM_VERS" version="2.0">
<header><CREATION_DATE/><ORIGINATOR/></header><body><segment><metadata><OBJECT_NAME>KUIPER-00150</OBJECT_NAME><OBJECT_ID>2025-217J</OBJECT_ID><CENTER_NAME>EARTH</CENTER_NAME><REF_FRAME>TEME</REF_FRAME><TIME_SYSTEM>UTC</TIME_SYSTEM><MEAN_ELEMENT_THEORY>SGP4</MEAN_ELEMENT_THEORY></metadata><data><meanElements><EPOCH>2025-12-12T22:00:01.999584</EPOCH><MEAN_MOTION>14.80286966</MEAN_MOTION><ECCENTRICITY>.00003996</ECCENTRICITY><INCLINATION>51.9010</INCLINATION><RA_OF_ASC_NODE>74.2225</RA_OF_ASC_NODE><ARG_OF_PERICENTER>168.3046</ARG_OF_PERICENTER><MEAN_ANOMALY>147.1115</MEAN_ANOMALY></meanElements><tleParameters><EPHEMERIS_TYPE>0</EPHEMERIS_TYPE><CLASSIFICATION_TYPE>U</CLASSIFICATION_TYPE><NORAD_CAT_ID>65770</NORAD_CAT_ID><ELEMENT_SET_NO>999</ELEMENT_SET_NO><REV_AT_EPOCH>506</REV_AT_EPOCH><BSTAR>-.65157766E-2</BSTAR><MEAN_MOTION_DOT>-.49944E-3</MEAN_MOTION_DOT><MEAN_MOTION_DDOT>0</MEAN_MOTION_DDOT></tleParameters></data></segment></body></omm>
<omm id="CCSDS_OMM_VERS" version="2.0">
<header><CREATION_DATE/><ORIGINATOR/></header><body><segment><metadata><OBJECT_NAME>KUIPER-00151</OBJECT_NAME><OBJECT_ID>2025-217K</OBJECT_ID><CENTER_NAME>EARTH</CENTER_NAME><REF_FRAME>TEME</REF_FRAME><TIME_SYSTEM>UTC</TIME_SYSTEM><MEAN_ELEMENT_THEORY>SGP4</MEAN_ELEMENT_THEORY></metadata><data><meanElements><EPOCH>2025-12-12T22:00:01.999584</EPOCH><MEAN_MOTION>15.04369321</MEAN_MOTION><ECCENTRICITY>.00035106</ECCENTRICITY><INCLINATION>51.8855</INCLINATION><RA_OF_ASC_NODE>67.9174</RA_OF_ASC_NODE><ARG_OF_PERICENTER>12.0243</ARG_OF_PERICENTER><MEAN_ANOMALY>336.2164</MEAN_ANOMALY></meanElements><tleParameters><EPHEMERIS_TYPE>0</EPHEMERIS_TYPE><CLASSIFICATION_TYPE>U</CLASSIFICATION_TYPE><NORAD_CAT_ID>65771</NORAD_CAT_ID><ELEMENT_SET_NO>999</ELEMENT_SET_NO><REV_AT_EPOCH>566</REV_AT_EPOCH><BSTAR>-.78421085E-1</BSTAR><MEAN_MOTION_DOT>-.1027337E-1</MEAN_MOTION_DOT><MEAN_MOTION_DDOT>0</MEAN_MOTION_DDOT></tleParameters></data></segment></body></omm>

</ndm>
