KUIPER-00133            
1 65764U 25217C   25346.66021457  .00052307  00000+0  68340-2 0  9995
2 65764  51.9030  77.9364 0011788  33.3710 326.7993 14.79908758 11858
KUIPER-00139            
1 65765U 25217D   25346.94567869  .00010216  00000+0  79710-3 0  9996
2 65765  51.8858  70.9898 0008181  22.6586 337.4745 15.01649613 11971
KUIPER-00142            
1 65766U 25217E   25346.91668981 -.00978681  00000+0 -43470-1 0  9994
2 65766  51.8753  64.1065 0003227  44.5061 353.7502 15.23775657  4835
KUIPER-00145            
1 65767U 25217F   25346.91668981 -.00797077  00000+0 -44918-1 0  9991
2 65767  51.8889  65.3206 0005987 359.8115 106.7452 15.15497385  4057
KUIPER-00147            
1 65768U 25217G   25346.91668981 -.01055102  00000+0 -74783-1 0  9992
2 65768  51.8930  67.1185 0009796  22.1125 251.8009 15.07118286  4673
KUIPER-00148            
1 65769U 25217H   25346.91668981 -.00012159  00000+0 -66608-3 0  9996
2 65769  51.8733  66.8130 0009513  46.7552  97.0872 15.12867828  4503
KUIPER-00150            
1 65770U 25217J   25346.91668981 -.00049944  00000+0 -65158-2 0  9998
2 65770  51.9010  74.2225 0000399 168.3046 147.1115 14.80286966  5065
KUIPER-00151            
1 65771U 25217K   25346.91668981 -.01027337  00000+0 -78421-1 0  9998
2 65771  51.8855  67.9174 0003510  12.0243 336.2164 15.04369321  5661
